{
  "type": "FeatureCollection",
  "features": [
    {
      "type": "Feature",
      "properties": {
        "norad_id": 41007,
        "name": "FENGYUN 1C DEB",
        "group": "fengyun-1c-debris",
        "lat": -25.84359296431273,
        "lon": 33.50547377006833,
        "alt_km": 842.743788699755,
        "timestamp": "2025-12-26T22:28:06.075024+00:00",
        "meta_object_name": "FENGYUN 1C DEB",
        "meta_object_id": "1999-025EXM",
        "meta_epoch": "2025-11-29T06:55:22.773792",
        "meta_mean_motion": 13.85678237,
        "meta_eccentricity": 0.01723955,
        "meta_inclination": 99.9731,
        "meta_ra_of_asc_node": 359.205,
        "meta_arg_of_pericenter": 79.2855,
        "meta_mean_anomaly": 282.7657,
        "meta_ephemeris_type": 0,
        "meta_classification_type": "U",
        "meta_norad_cat_id": 41007,
        "meta_element_set_no": 999,
        "meta_rev_at_epoch": 57212,
        "meta_bstar": 0.0017167305,
        "meta_mean_motion_dot": 2.158e-05,
        "meta_mean_motion_ddot": 0,
        "tle_line1": "1 41007U 99025EXM 25333.28845803  .00002158  00000+0  17167-2 0  9990",
        "tle_line2": "2 41007  99.9731 359.2050 0172395  79.2855 282.7657 13.85678237572123"
      },
      "geometry": {
        "type": "Point",
        "coordinates": [
          33.50547377006833,
          -25.84359296431273
        ]
      }
    },
    {
      "type": "Feature",
      "properties": {
        "norad_id": 41011,
        "name": "FENGYUN 1C DEB",
        "group": "fengyun-1c-debris",
        "lat": 24.247461683496677,
        "lon": -128.7891222920803,
        "alt_km": 955.4903802917743,
        "timestamp": "2025-12-26T22:28:06.075034+00:00",
        "meta_object_name": "FENGYUN 1C DEB",
        "meta_object_id": "1999-025EXR",
        "meta_epoch": "2025-12-23T20:30:46.247616",
        "meta_mean_motion": 14.42971366,
        "meta_eccentricity": 0.0309356,
        "meta_inclination": 99.1668,
        "meta_ra_of_asc_node": 43.7219,
        "meta_arg_of_pericenter": 325.2752,
        "meta_mean_anomaly": 32.8581,
        "meta_ephemeris_type": 0,
        "meta_classification_type": "U",
        "meta_norad_cat_id": 41011,
        "meta_element_set_no": 999,
        "meta_rev_at_epoch": 57317,
        "meta_bstar": 0.00060457,
        "meta_mean_motion_dot": 3.552e-05,
        "meta_mean_motion_ddot": 0,
        "tle_line1": "1 41011U 99025EXR 25357.85470194  .00003552  00000+0  60457-3 0  9991",
        "tle_line2": "2 41011  99.1668  43.7219 0309356 325.2752  32.8581 14.42971366573179"
      },
      "geometry": {
        "type": "Point",
        "coordinates": [
          -128.7891222920803,
          24.247461683496677
        ]
      }
    },
    {
      "type": "Feature",
      "properties": {
        "norad_id": 41018,
        "name": "FENGYUN 1C DEB",
        "group": "fengyun-1c-debris",
        "lat": -3.9480518207417754,
        "lon": 124.66869302912441,
        "alt_km": 1100.9508006403703,
        "timestamp": "2025-12-26T22:28:06.075045+00:00",
        "meta_object_name": "FENGYUN 1C DEB",
        "meta_object_id": "1999-025EXY",
        "meta_epoch": "2025-12-15T01:30:35.121600",
        "meta_mean_motion": 13.52371588,
        "meta_eccentricity": 0.03049079,
        "meta_inclination": 99.9356,
        "meta_ra_of_asc_node": 293.4577,
        "meta_arg_of_pericenter": 112.862,
        "meta_mean_anomaly": 250.5013,
        "meta_ephemeris_type": 0,
        "meta_classification_type": "U",
        "meta_norad_cat_id": 41018,
        "meta_element_set_no": 999,
        "meta_rev_at_epoch": 88206,
        "meta_bstar": 0.0022149287,
        "meta_mean_motion_dot": 1.917e-05,
        "meta_mean_motion_ddot": 0,
        "tle_line1": "1 41018U 99025EXY 25349.06290650  .00001917  00000+0  22149-2 0  9997",
        "tle_line2": "2 41018  99.9356 293.4577 0304907 112.8620 250.5013 13.52371588882060"
      },
      "geometry": {
        "type": "Point",
        "coordinates": [
          124.66869302912441,
          -3.9480518207417754
        ]
      }
    },
    {
      "type": "Feature",
      "properties": {
        "norad_id": 41822,
        "name": "FENGYUN 1C DEB",
        "group": "fengyun-1c-debris",
        "lat": -40.99033903147688,
        "lon": 74.7429649266599,
        "alt_km": 845.3239061193835,
        "timestamp": "2025-12-26T22:28:06.075055+00:00",
        "meta_object_name": "FENGYUN 1C DEB",
        "meta_object_id": "1999-025EXZ",
        "meta_epoch": "2025-12-25T02:50:49.957728",
        "meta_mean_motion": 14.24883906,
        "meta_eccentricity": 0.00559815,
        "meta_inclination": 98.731,
        "meta_ra_of_asc_node": 65.2613,
        "meta_arg_of_pericenter": 185.4184,
        "meta_mean_anomaly": 174.6396,
        "meta_ephemeris_type": 0,
        "meta_classification_type": "U",
        "meta_norad_cat_id": 41822,
        "meta_element_set_no": 999,
        "meta_rev_at_epoch": 47549,
        "meta_bstar": 0.0016186489,
        "meta_mean_motion_dot": 3.8e-05,
        "meta_mean_motion_ddot": 0,
        "tle_line1": "1 41822U 99025EXZ 25359.11863377  .00003800  00000+0  16186-2 0  9996",
        "tle_line2": "2 41822  98.7310  65.2613 0055981 185.4184 174.6396 14.24883906475499"
      },
      "geometry": {
        "type": "Point",
        "coordinates": [
          74.7429649266599,
          -40.99033903147688
        ]
      }
    },
    {
      "type": "Feature",
      "properties": {
        "norad_id": 41823,
        "name": "FENGYUN 1C DEB",
        "group": "fengyun-1c-debris",
        "lat": -35.5419891506229,
        "lon": 70.43095352214891,
        "alt_km": 848.1492796433631,
        "timestamp": "2025-12-26T22:28:06.075065+00:00",
        "meta_object_name": "FENGYUN 1C DEB",
        "meta_object_id": "1999-025EYA",
        "meta_epoch": "2025-12-26T04:05:01.810176",
        "meta_mean_motion": 14.23604356,
        "meta_eccentricity": 0.0055345,
        "meta_inclination": 98.719,
        "meta_ra_of_asc_node": 63.3778,
        "meta_arg_of_pericenter": 189.854,
        "meta_mean_anomaly": 170.1558,
        "meta_ephemeris_type": 0,
        "meta_classification_type": "U",
        "meta_norad_cat_id": 41823,
        "meta_element_set_no": 999,
        "meta_rev_at_epoch": 47549,
        "meta_bstar": 0.0014667,
        "meta_mean_motion_dot": 3.352e-05,
        "meta_mean_motion_ddot": 0,
        "tle_line1": "1 41823U 99025EYA 25360.17015984  .00003352  00000+0  14667-2 0  9992",
        "tle_line2": "2 41823  98.7190  63.3778 0055345 189.8540 170.1558 14.23604356475495"
      },
      "geometry": {
        "type": "Point",
        "coordinates": [
          70.43095352214891,
          -35.5419891506229
        ]
      }
    },
    {
      "type": "Feature",
      "properties": {
        "norad_id": 41824,
        "name": "FENGYUN 1C DEB",
        "group": "fengyun-1c-debris",
        "lat": -41.69128960147306,
        "lon": -122.99689250186707,
        "alt_km": 783.3814844436392,
        "timestamp": "2025-12-26T22:28:06.075075+00:00",
        "meta_object_name": "FENGYUN 1C DEB",
        "meta_object_id": "1999-025EYB",
        "meta_epoch": "2025-12-25T15:04:50.435328",
        "meta_mean_motion": 14.24251366,
        "meta_eccentricity": 0.0058022,
        "meta_inclination": 98.7299,
        "meta_ra_of_asc_node": 63.5702,
        "meta_arg_of_pericenter": 190.7204,
        "meta_mean_anomaly": 169.2742,
        "meta_ephemeris_type": 0,
        "meta_classification_type": "U",
        "meta_norad_cat_id": 41824,
        "meta_element_set_no": 999,
        "meta_rev_at_epoch": 47543,
        "meta_bstar": 0.001558,
        "meta_mean_motion_dot": 3.615e-05,
        "meta_mean_motion_ddot": 0,
        "tle_line1": "1 41824U 99025EYB 25359.62836152  .00003615  00000+0  15580-2 0  9996",
        "tle_line2": "2 41824  98.7299  63.5702 0058022 190.7204 169.2742 14.24251366475436"
      },
      "geometry": {
        "type": "Point",
        "coordinates": [
          -122.99689250186707,
          -41.69128960147306
        ]
      }
    },
    {
      "type": "Feature",
      "properties": {
        "norad_id": 41825,
        "name": "FENGYUN 1C DEB",
        "group": "fengyun-1c-debris",
        "lat": 47.1685455329382,
        "lon": -100.53355354402805,
        "alt_km": 776.514623492897,
        "timestamp": "2025-12-26T22:28:06.075086+00:00",
        "meta_object_name": "FENGYUN 1C DEB",
        "meta_object_id": "1999-025EYC",
        "meta_epoch": "2025-12-25T03:43:29.620416",
        "meta_mean_motion": 14.25180485,
        "meta_eccentricity": 0.00563177,
        "meta_inclination": 98.7406,
        "meta_ra_of_asc_node": 68.1399,
        "meta_arg_of_pericenter": 185.371,
        "meta_mean_anomaly": 174.6872,
        "meta_ephemeris_type": 0,
        "meta_classification_type": "U",
        "meta_norad_cat_id": 41825,
        "meta_element_set_no": 999,
        "meta_rev_at_epoch": 47525,
        "meta_bstar": 0.0016517064,
        "meta_mean_motion_dot": 3.901e-05,
        "meta_mean_motion_ddot": 0,
        "tle_line1": "1 41825U 99025EYC 25359.15520394  .00003901  00000+0  16517-2 0  9992",
        "tle_line2": "2 41825  98.7406  68.1399 0056317 185.3710 174.6872 14.25180485475255"
      },
      "geometry": {
        "type": "Point",
        "coordinates": [
          -100.53355354402805,
          47.1685455329382
        ]
      }
    }
  ]
}